STARLINK-35454          
1 66236U 25245C   25323.83336806 -.02032504  00000+0 -34961-1 0  9994
2 66236  53.1596  77.8165 0001100  45.0398  27.4036 15.53714210  4262
STARLINK-35557          
1 66237U 25245D   25323.83336806 -.02025888  00000+0 -34839-1 0  9996
2 66237  53.1591  77.8127 0001035  52.0818  22.2797 15.53710369  4424
STARLINK-35556          
1 66238U 25245E   25323.83336806 -.02025436  00000+0 -34832-1 0  9999
2 66238  53.1593  77.8081 0001028  55.5676  20.7119 15.53709627  4424
STARLINK-35554          
1 66239U 25245F   25323.83336806 -.02025657  00000+0 -34836-1 0  9999
2 66239  53.1590  77.8046 0001026  55.7765  22.4198 15.53709637  4261
STARLINK-35546          
1 66240U 25245G   25323.83336806 -.02014678  00000+0 -34631-1 0  9995
2 66240  53.1593  77.8008 0001258  48.7053  31.4067 15.53702780  4428
STARLINK-35497          
1 66241U 25245H   25323.83336806 -.02031222  00000+0 -34938-1 0  9990
2 66241  53.1593  77.7974 0001122  57.9970  24.0318 15.53713098  4375
STARLINK-35480          
1 66242U 25245J   25323.83336806 -.02032766  00000+0 -34968-1 0  9998
2 66242  53.1595  77.7851 0001073  58.6178  29.1640 15.53713137  4429
STARLINK-35495          
1 66243U 25245K   25323.83336806 -.02032108  00000+0 -34954-1 0  9994
2 66243  53.1592  77.7939 0001117  55.7413  28.2037 15.53713806  4426
STARLINK-35517          
1 66244U 25245L   25323.58335648 -.02069800  00000+0 -34208-1 0  9991
2 66244  53.1598  78.9927 0001225  62.7399  63.4025 15.54855831  4170
STARLINK-35503          
1 66245U 25245M   25323.83336806 -.02026498  00000+0 -34851-1 0  9997
2 66245  53.1596  77.7797 0001074  56.8211  32.8767 15.53709824  4374
STARLINK-35434          
1 66246U 25245N   25323.83336806 -.02026614  00000+0 -34853-1 0  9990
2 66246  53.1598  77.7747 0001081  56.0560  35.5587 15.53709952  4214
STARLINK-35481          
1 66247U 25245P   25323.83336806 -.02023062  00000+0 -34787-1 0  9991
2 66247  53.1596  77.7717 0001160  41.7256  51.8040 15.53707938  4421
