CCSDS_OMM_VERS = 2.0
CREATION_DATE  = 
ORIGINATOR     = 

OBJECT_NAME    = STARLINK-35454
OBJECT_ID      = 2025-245C
CENTER_NAME    = EARTH
REF_FRAME      = TEME
TIME_SYSTEM    = UTC
MEAN_ELEMENT_THEORY = SGP/SGP4

EPOCH          = 2025-11-19T20:00:03.000384
MEAN_MOTION    = 15.53714210
ECCENTRICITY   = .00011
INCLINATION    = 53.1596
RA_OF_ASC_NODE = 77.8165
ARG_OF_PERICENTER = 45.0398
MEAN_ANOMALY   = 27.4036

EPHEMERIS_TYPE = 0
CLASSIFICATION_TYPE = U
NORAD_CAT_ID   = 66236
ELEMENT_SET_NO = 999
REV_AT_EPOCH   = 426
BSTAR          = -.34961E-1
MEAN_MOTION_DOT = -.2032504E-1
MEAN_MOTION_DDOT = 0

CCSDS_OMM_VERS = 2.0
CREATION_DATE  = 
ORIGINATOR     = 

OBJECT_NAME    = STARLINK-35557
OBJECT_ID      = 2025-245D
CENTER_NAME    = EARTH
REF_FRAME      = TEME
TIME_SYSTEM    = UTC
MEAN_ELEMENT_THEORY = SGP/SGP4

EPOCH          = 2025-11-19T20:00:03.000384
MEAN_MOTION    = 15.53710369
ECCENTRICITY   = .0001035
INCLINATION    = 53.1591
RA_OF_ASC_NODE = 77.8127
ARG_OF_PERICENTER = 52.0818
MEAN_ANOMALY   = 22.2797

EPHEMERIS_TYPE = 0
CLASSIFICATION_TYPE = U
NORAD_CAT_ID   = 66237
ELEMENT_SET_NO = 999
REV_AT_EPOCH   = 442
BSTAR          = -.34839E-1
MEAN_MOTION_DOT = -.2025888E-1
MEAN_MOTION_DDOT = 0

CCSDS_OMM_VERS = 2.0
CREATION_DATE  = 
ORIGINATOR     = 

OBJECT_NAME    = STARLINK-35556
OBJECT_ID      = 2025-245E
CENTER_NAME    = EARTH
REF_FRAME      = TEME
TIME_SYSTEM    = UTC
MEAN_ELEMENT_THEORY = SGP/SGP4

EPOCH          = 2025-11-19T20:00:03.000384
MEAN_MOTION    = 15.53709627
ECCENTRICITY   = .0001028
INCLINATION    = 53.1593
RA_OF_ASC_NODE = 77.8081
ARG_OF_PERICENTER = 55.5676
MEAN_ANOMALY   = 20.7119

EPHEMERIS_TYPE = 0
CLASSIFICATION_TYPE = U
NORAD_CAT_ID   = 66238
ELEMENT_SET_NO = 999
REV_AT_EPOCH   = 442
BSTAR          = -.34832E-1
MEAN_MOTION_DOT = -.2025436E-1
MEAN_MOTION_DDOT = 0

CCSDS_OMM_VERS = 2.0
CREATION_DATE  = 
ORIGINATOR     = 

OBJECT_NAME    = STARLINK-35554
OBJECT_ID      = 2025-245F
CENTER_NAME    = EARTH
REF_FRAME      = TEME
TIME_SYSTEM    = UTC
MEAN_ELEMENT_THEORY = SGP/SGP4

EPOCH          = 2025-11-19T20:00:03.000384
MEAN_MOTION    = 15.53709637
ECCENTRICITY   = .0001026
INCLINATION    = 53.1590
RA_OF_ASC_NODE = 77.8046
ARG_OF_PERICENTER = 55.7765
MEAN_ANOMALY   = 22.4198

EPHEMERIS_TYPE = 0
CLASSIFICATION_TYPE = U
NORAD_CAT_ID   = 66239
ELEMENT_SET_NO = 999
REV_AT_EPOCH   = 426
BSTAR          = -.34836E-1
MEAN_MOTION_DOT = -.2025657E-1
MEAN_MOTION_DDOT = 0

CCSDS_OMM_VERS = 2.0
CREATION_DATE  = 
ORIGINATOR     = 

OBJECT_NAME    = STARLINK-35546
OBJECT_ID      = 2025-245G
CENTER_NAME    = EARTH
REF_FRAME      = TEME
TIME_SYSTEM    = UTC
MEAN_ELEMENT_THEORY = SGP/SGP4

EPOCH          = 2025-11-19T20:00:03.000384
MEAN_MOTION    = 15.53702780
ECCENTRICITY   = .0001258
INCLINATION    = 53.1593
RA_OF_ASC_NODE = 77.8008
ARG_OF_PERICENTER = 48.7053
MEAN_ANOMALY   = 31.4067

EPHEMERIS_TYPE = 0
CLASSIFICATION_TYPE = U
NORAD_CAT_ID   = 66240
ELEMENT_SET_NO = 999
REV_AT_EPOCH   = 442
BSTAR          = -.34631E-1
MEAN_MOTION_DOT = -.2014678E-1
MEAN_MOTION_DDOT = 0

CCSDS_OMM_VERS = 2.0
CREATION_DATE  = 
ORIGINATOR     = 

OBJECT_NAME    = STARLINK-35497
OBJECT_ID      = 2025-245H
CENTER_NAME    = EARTH
REF_FRAME      = TEME
TIME_SYSTEM    = UTC
MEAN_ELEMENT_THEORY = SGP/SGP4

EPOCH          = 2025-11-19T20:00:03.000384
MEAN_MOTION    = 15.53713098
ECCENTRICITY   = .0001122
INCLINATION    = 53.1593
RA_OF_ASC_NODE = 77.7974
ARG_OF_PERICENTER = 57.9970
MEAN_ANOMALY   = 24.0318

EPHEMERIS_TYPE = 0
CLASSIFICATION_TYPE = U
NORAD_CAT_ID   = 66241
ELEMENT_SET_NO = 999
REV_AT_EPOCH   = 437
BSTAR          = -.34938E-1
MEAN_MOTION_DOT = -.2031222E-1
MEAN_MOTION_DDOT = 0

CCSDS_OMM_VERS = 2.0
CREATION_DATE  = 
ORIGINATOR     = 

OBJECT_NAME    = STARLINK-35480
OBJECT_ID      = 2025-245J
CENTER_NAME    = EARTH
REF_FRAME      = TEME
TIME_SYSTEM    = UTC
MEAN_ELEMENT_THEORY = SGP/SGP4

EPOCH          = 2025-11-19T20:00:03.000384
MEAN_MOTION    = 15.53713137
ECCENTRICITY   = .0001073
INCLINATION    = 53.1595
RA_OF_ASC_NODE = 77.7851
ARG_OF_PERICENTER = 58.6178
MEAN_ANOMALY   = 29.1640

EPHEMERIS_TYPE = 0
CLASSIFICATION_TYPE = U
NORAD_CAT_ID   = 66242
ELEMENT_SET_NO = 999
REV_AT_EPOCH   = 442
BSTAR          = -.34968E-1
MEAN_MOTION_DOT = -.2032766E-1
MEAN_MOTION_DDOT = 0

CCSDS_OMM_VERS = 2.0
CREATION_DATE  = 
ORIGINATOR     = 

OBJECT_NAME    = STARLINK-35495
OBJECT_ID      = 2025-245K
CENTER_NAME    = EARTH
REF_FRAME      = TEME
TIME_SYSTEM    = UTC
MEAN_ELEMENT_THEORY = SGP/SGP4

EPOCH          = 2025-11-19T20:00:03.000384
MEAN_MOTION    = 15.53713806
ECCENTRICITY   = .0001117
INCLINATION    = 53.1592
RA_OF_ASC_NODE = 77.7939
ARG_OF_PERICENTER = 55.7413
MEAN_ANOMALY   = 28.2037

EPHEMERIS_TYPE = 0
CLASSIFICATION_TYPE = U
NORAD_CAT_ID   = 66243
ELEMENT_SET_NO = 999
REV_AT_EPOCH   = 442
BSTAR          = -.34954E-1
MEAN_MOTION_DOT = -.2032108E-1
MEAN_MOTION_DDOT = 0

CCSDS_OMM_VERS = 2.0
CREATION_DATE  = 
ORIGINATOR     = 

OBJECT_NAME    = STARLINK-35517
OBJECT_ID      = 2025-245L
CENTER_NAME    = EARTH
REF_FRAME      = TEME
TIME_SYSTEM    = UTC
MEAN_ELEMENT_THEORY = SGP/SGP4

EPOCH          = 2025-11-19T14:00:01.999872
MEAN_MOTION    = 15.54855831
ECCENTRICITY   = .00012253
INCLINATION    = 53.1598
RA_OF_ASC_NODE = 78.9927
ARG_OF_PERICENTER = 62.7399
MEAN_ANOMALY   = 63.4025

EPHEMERIS_TYPE = 0
CLASSIFICATION_TYPE = U
NORAD_CAT_ID   = 66244
ELEMENT_SET_NO = 999
REV_AT_EPOCH   = 417
BSTAR          = -.34208272E-1
MEAN_MOTION_DOT = -.20698E-1
MEAN_MOTION_DDOT = 0

CCSDS_OMM_VERS = 2.0
CREATION_DATE  = 
ORIGINATOR     = 

OBJECT_NAME    = STARLINK-35503
OBJECT_ID      = 2025-245M
CENTER_NAME    = EARTH
REF_FRAME      = TEME
TIME_SYSTEM    = UTC
MEAN_ELEMENT_THEORY = SGP/SGP4

EPOCH          = 2025-11-19T20:00:03.000384
MEAN_MOTION    = 15.53709824
ECCENTRICITY   = .0001074
INCLINATION    = 53.1596
RA_OF_ASC_NODE = 77.7797
ARG_OF_PERICENTER = 56.8211
MEAN_ANOMALY   = 32.8767

EPHEMERIS_TYPE = 0
CLASSIFICATION_TYPE = U
NORAD_CAT_ID   = 66245
ELEMENT_SET_NO = 999
REV_AT_EPOCH   = 437
BSTAR          = -.34851E-1
MEAN_MOTION_DOT = -.2026498E-1
MEAN_MOTION_DDOT = 0

CCSDS_OMM_VERS = 2.0
CREATION_DATE  = 
ORIGINATOR     = 

OBJECT_NAME    = STARLINK-35434
OBJECT_ID      = 2025-245N
CENTER_NAME    = EARTH
REF_FRAME      = TEME
TIME_SYSTEM    = UTC
MEAN_ELEMENT_THEORY = SGP/SGP4

EPOCH          = 2025-11-19T20:00:03.000384
MEAN_MOTION    = 15.53709952
ECCENTRICITY   = .0001081
INCLINATION    = 53.1598
RA_OF_ASC_NODE = 77.7747
ARG_OF_PERICENTER = 56.0560
MEAN_ANOMALY   = 35.5587

EPHEMERIS_TYPE = 0
CLASSIFICATION_TYPE = U
NORAD_CAT_ID   = 66246
ELEMENT_SET_NO = 999
REV_AT_EPOCH   = 421
BSTAR          = -.34853E-1
MEAN_MOTION_DOT = -.2026614E-1
MEAN_MOTION_DDOT = 0

CCSDS_OMM_VERS = 2.0
CREATION_DATE  = 
ORIGINATOR     = 

OBJECT_NAME    = STARLINK-35481
OBJECT_ID      = 2025-245P
CENTER_NAME    = EARTH
REF_FRAME      = TEME
TIME_SYSTEM    = UTC
MEAN_ELEMENT_THEORY = SGP/SGP4

EPOCH          = 2025-11-19T20:00:03.000384
MEAN_MOTION    = 15.53707938
ECCENTRICITY   = .000116
INCLINATION    = 53.1596
RA_OF_ASC_NODE = 77.7717
ARG_OF_PERICENTER = 41.7256
MEAN_ANOMALY   = 51.8040

EPHEMERIS_TYPE = 0
CLASSIFICATION_TYPE = U
NORAD_CAT_ID   = 66247
ELEMENT_SET_NO = 999
REV_AT_EPOCH   = 442
BSTAR          = -.34787E-1
MEAN_MOTION_DOT = -.2023062E-1
MEAN_MOTION_DDOT = 0

